STARLINK-4494           
1 53558U 22101AH  25333.76390492  .00001280  00000+0  98475-4 0  9995
2 53558  53.2158 147.4253 0001395  82.4002 277.7149 15.08839545181951
STARLINK-4508           
1 53559U 22101AJ  25333.23541646  .00001832  00000+0  13319-3 0  9993
2 53559  53.2161 155.0780 0001296  87.1763 272.9378 15.08839003181143
STARLINK-4564           
1 53560U 22101AK  25333.74050301 -.00000099  00000+0  11849-4 0  9996
2 53560  53.2173 142.9937 0001425  85.8710 274.2445 15.08839717181353
STARLINK-4563           
1 53561U 22101AL  25333.82420005  .00000908  00000+0  75114-4 0  9991
2 53561  53.2160 152.4351 0001357  87.6284 272.4864 15.08838506181233
STARLINK-4565           
1 53562U 22101AM  25333.73681796  .00000058  00000+0  21728-4 0  9996
2 53562  53.2160 142.9717 0001400  89.1265 270.9887 15.08839132182010
STARLINK-4561           
1 53563U 22101AN  25333.74418516 -.00000084  00000+0  12791-4 0  9996
2 53563  53.2165 143.0147 0001538  91.2955 268.8214 15.08840366181354
STARLINK-4577           
1 53564U 22101AP  25333.72944961  .00000364  00000+0  40973-4 0  9996
2 53564  53.2160 142.9269 0001429  88.9569 271.1587 15.08837650181358
STARLINK-4575           
1 53565U 22101AQ  25333.73777207  .00001538  00000+0  11473-3 0  9991
2 53565  53.2155 142.9769 0001251  84.4428 275.6707 15.08830551182016
STARLINK-4576           
1 53566U 22101AR  25333.72210108 -.00001867  00000+0 -99310-4 0  9997
2 53566  53.2165 142.8813 0001418  93.5610 266.5544 15.08817337182044
STARLINK-4585           
1 53567U 22101AS  25333.73313454 -.00000118  00000+0  10695-4 0  9993
2 53567  53.2158 142.9496 0001699  95.9885 264.1301 15.08838345181356
STARLINK-4583           
1 53568U 22101AT  25333.64478502 -.00001992  00000+0 -10711-3 0  9990
2 53568  53.2149 143.1075 0001433  84.6069 275.5086 15.08841095182036
STARLINK-4582           
1 53569U 22101AU  25333.72576817  .00001559  00000+0  11608-3 0  9991
2 53569  53.2163 142.9051 0001479  92.2540 267.8621 15.08820541182024
STARLINK-4550           
1 53570U 22101AV  25333.78094817  .00000197  00000+0  30469-4 0  9998
2 53570  53.2166 142.5377 0001441  99.4291 260.6864 15.08837726182053
STARLINK-4584           
1 53571U 22101AW  25333.71839351  .00000988  00000+0  80152-4 0  9994
2 53571  53.2171 142.8568 0001331  93.0145 267.1000 15.08836830182049
STARLINK-4555           
1 53572U 22101AX  25333.75883970  .00000255  00000+0  34142-4 0  9990
2 53572  53.2161 142.4019 0001566  90.0735 270.0437 15.08836106181365
STARLINK-4559           
1 53574U 22101AZ  25333.76252462  .00000174  00000+0  28996-4 0  9999
2 53574  53.2168 142.4229 0001401  91.0596 269.0556 15.08836908181361
STARLINK-4551           
1 53575U 22101BA  25333.63742763 -.00001460  00000+0 -73675-4 0  9999
2 53575  53.2164 143.0608 0001350  78.7333 281.3810 15.08829222182036
