[{"OBJECT_NAME":"STARLINK-4494","OBJECT_ID":"2022-101AH","EPOCH":"2025-11-29T18:20:01.385088","MEAN_MOTION":15.08839545,"ECCENTRICITY":0.0001395,"INCLINATION":53.2158,"RA_OF_ASC_NODE":147.4253,"ARG_OF_PERICENTER":82.4002,"MEAN_ANOMALY":277.7149,"EPHEMERIS_TYPE":0,"CLASSIFICATION_TYPE":"U","NORAD_CAT_ID":53558,"ELEMENT_SET_NO":999,"REV_AT_EPOCH":18195,"BSTAR":9.8475e-5,"MEAN_MOTION_DOT":1.28e-5,"MEAN_MOTION_DDOT":0},{"OBJECT_NAME":"STARLINK-4508","OBJECT_ID":"2022-101AJ","EPOCH":"2025-11-29T05:38:59.982144","MEAN_MOTION":15.08839003,"ECCENTRICITY":0.00012963,"INCLINATION":53.2161,"RA_OF_ASC_NODE":155.078,"ARG_OF_PERICENTER":87.1763,"MEAN_ANOMALY":272.9378,"EPHEMERIS_TYPE":0,"CLASSIFICATION_TYPE":"U","NORAD_CAT_ID":53559,"ELEMENT_SET_NO":999,"REV_AT_EPOCH":18114,"BSTAR":0.00013319221,"MEAN_MOTION_DOT":1.832e-5,"MEAN_MOTION_DDOT":0},{"OBJECT_NAME":"STARLINK-4564","OBJECT_ID":"2022-101AK","EPOCH":"2025-11-29T17:46:19.460064","MEAN_MOTION":15.08839717,"ECCENTRICITY":0.0001425,"INCLINATION":53.2173,"RA_OF_ASC_NODE":142.9937,"ARG_OF_PERICENTER":85.871,"MEAN_ANOMALY":274.2445,"EPHEMERIS_TYPE":0,"CLASSIFICATION_TYPE":"U","NORAD_CAT_ID":53560,"ELEMENT_SET_NO":999,"REV_AT_EPOCH":18135,"BSTAR":1.1849e-5,"MEAN_MOTION_DOT":-9.9e-7,"MEAN_MOTION_DDOT":0},{"OBJECT_NAME":"STARLINK-4563","OBJECT_ID":"2022-101AL","EPOCH":"2025-11-29T19:46:50.884320","MEAN_MOTION":15.08838506,"ECCENTRICITY":0.0001357,"INCLINATION":53.216,"RA_OF_ASC_NODE":152.4351,"ARG_OF_PERICENTER":87.6284,"MEAN_ANOMALY":272.4864,"EPHEMERIS_TYPE":0,"CLASSIFICATION_TYPE":"U","NORAD_CAT_ID":53561,"ELEMENT_SET_NO":999,"REV_AT_EPOCH":18123,"BSTAR":7.5114e-5,"MEAN_MOTION_DOT":9.08e-6,"MEAN_MOTION_DDOT":0},{"OBJECT_NAME":"STARLINK-4565","OBJECT_ID":"2022-101AM","EPOCH":"2025-11-29T17:41:01.071744","MEAN_MOTION":15.08839132,"ECCENTRICITY":0.00014,"INCLINATION":53.216,"RA_OF_ASC_NODE":142.9717,"ARG_OF_PERICENTER":89.1265,"MEAN_ANOMALY":270.9887,"EPHEMERIS_TYPE":0,"CLASSIFICATION_TYPE":"U","NORAD_CAT_ID":53562,"ELEMENT_SET_NO":999,"REV_AT_EPOCH":18201,"BSTAR":2.1728e-5,"MEAN_MOTION_DOT":5.8e-7,"MEAN_MOTION_DDOT":0},{"OBJECT_NAME":"STARLINK-4561","OBJECT_ID":"2022-101AN","EPOCH":"2025-11-29T17:51:37.597824","MEAN_MOTION":15.08840366,"ECCENTRICITY":0.0001538,"INCLINATION":53.2165,"RA_OF_ASC_NODE":143.0147,"ARG_OF_PERICENTER":91.2955,"MEAN_ANOMALY":268.8214,"EPHEMERIS_TYPE":0,"CLASSIFICATION_TYPE":"U","NORAD_CAT_ID":53563,"ELEMENT_SET_NO":999,"REV_AT_EPOCH":18135,"BSTAR":1.2791e-5,"MEAN_MOTION_DOT":-8.4e-7,"MEAN_MOTION_DDOT":0},{"OBJECT_NAME":"STARLINK-4577","OBJECT_ID":"2022-101AP","EPOCH":"2025-11-29T17:30:24.446304","MEAN_MOTION":15.0883765,"ECCENTRICITY":0.0001429,"INCLINATION":53.216,"RA_OF_ASC_NODE":142.9269,"ARG_OF_PERICENTER":88.9569,"MEAN_ANOMALY":271.1587,"EPHEMERIS_TYPE":0,"CLASSIFICATION_TYPE":"U","NORAD_CAT_ID":53564,"ELEMENT_SET_NO":999,"REV_AT_EPOCH":18135,"BSTAR":4.0973e-5,"MEAN_MOTION_DOT":3.64e-6,"MEAN_MOTION_DDOT":0},{"OBJECT_NAME":"STARLINK-4575","OBJECT_ID":"2022-101AQ","EPOCH":"2025-11-29T17:42:23.506848","MEAN_MOTION":15.08830551,"ECCENTRICITY":0.0001251,"INCLINATION":53.2155,"RA_OF_ASC_NODE":142.9769,"ARG_OF_PERICENTER":84.4428,"MEAN_ANOMALY":275.6707,"EPHEMERIS_TYPE":0,"CLASSIFICATION_TYPE":"U","NORAD_CAT_ID":53565,"ELEMENT_SET_NO":999,"REV_AT_EPOCH":18201,"BSTAR":0.00011473,"MEAN_MOTION_DOT":1.538e-5,"MEAN_MOTION_DDOT":0},{"OBJECT_NAME":"STARLINK-4576","OBJECT_ID":"2022-101AR","EPOCH":"2025-11-29T17:19:49.533312","MEAN_MOTION":15.08817337,"ECCENTRICITY":0.0001418,"INCLINATION":53.2165,"RA_OF_ASC_NODE":142.8813,"ARG_OF_PERICENTER":93.561,"MEAN_ANOMALY":266.5544,"EPHEMERIS_TYPE":0,"CLASSIFICATION_TYPE":"U","NORAD_CAT_ID":53566,"ELEMENT_SET_NO":999,"REV_AT_EPOCH":18204,"BSTAR":-9.931e-5,"MEAN_MOTION_DOT":-1.867e-5,"MEAN_MOTION_DDOT":0},{"OBJECT_NAME":"STARLINK-4585","OBJECT_ID":"2022-101AS","EPOCH":"2025-11-29T17:35:42.824256","MEAN_MOTION":15.08838345,"ECCENTRICITY":0.0001699,"INCLINATION":53.2158,"RA_OF_ASC_NODE":142.9496,"ARG_OF_PERICENTER":95.9885,"MEAN_ANOMALY":264.1301,"EPHEMERIS_TYPE":0,"CLASSIFICATION_TYPE":"U","NORAD_CAT_ID":53567,"ELEMENT_SET_NO":999,"REV_AT_EPOCH":18135,"BSTAR":1.0695e-5,"MEAN_MOTION_DOT":-1.18e-6,"MEAN_MOTION_DDOT":0},{"OBJECT_NAME":"STARLINK-4583","OBJECT_ID":"2022-101AT","EPOCH":"2025-11-29T15:28:29.425728","MEAN_MOTION":15.08841095,"ECCENTRICITY":0.0001433,"INCLINATION":53.2149,"RA_OF_ASC_NODE":143.1075,"ARG_OF_PERICENTER":84.6069,"MEAN_ANOMALY":275.5086,"EPHEMERIS_TYPE":0,"CLASSIFICATION_TYPE":"U","NORAD_CAT_ID":53568,"ELEMENT_SET_NO":999,"REV_AT_EPOCH":18203,"BSTAR":-0.00010711,"MEAN_MOTION_DOT":-1.992e-5,"MEAN_MOTION_DDOT":0},{"OBJECT_NAME":"STARLINK-4582","OBJECT_ID":"2022-101AU","EPOCH":"2025-11-29T17:25:06.369888","MEAN_MOTION":15.08820541,"ECCENTRICITY":0.0001479,"INCLINATION":53.2163,"RA_OF_ASC_NODE":142.9051,"ARG_OF_PERICENTER":92.254,"MEAN_ANOMALY":267.8621,"EPHEMERIS_TYPE":0,"CLASSIFICATION_TYPE":"U","NORAD_CAT_ID":53569,"ELEMENT_SET_NO":999,"REV_AT_EPOCH":18202,"BSTAR":0.00011608,"MEAN_MOTION_DOT":1.559e-5,"MEAN_MOTION_DDOT":0},{"OBJECT_NAME":"STARLINK-4550","OBJECT_ID":"2022-101AV","EPOCH":"2025-11-29T18:44:33.921888","MEAN_MOTION":15.08837726,"ECCENTRICITY":0.0001441,"INCLINATION":53.2166,"RA_OF_ASC_NODE":142.5377,"ARG_OF_PERICENTER":99.4291,"MEAN_ANOMALY":260.6864,"EPHEMERIS_TYPE":0,"CLASSIFICATION_TYPE":"U","NORAD_CAT_ID":53570,"ELEMENT_SET_NO":999,"REV_AT_EPOCH":18205,"BSTAR":3.0469e-5,"MEAN_MOTION_DOT":1.97e-6,"MEAN_MOTION_DDOT":0},{"OBJECT_NAME":"STARLINK-4584","OBJECT_ID":"2022-101AW","EPOCH":"2025-11-29T17:14:29.199264","MEAN_MOTION":15.0883683,"ECCENTRICITY":0.0001331,"INCLINATION":53.2171,"RA_OF_ASC_NODE":142.8568,"ARG_OF_PERICENTER":93.0145,"MEAN_ANOMALY":267.1,"EPHEMERIS_TYPE":0,"CLASSIFICATION_TYPE":"U","NORAD_CAT_ID":53571,"ELEMENT_SET_NO":999,"REV_AT_EPOCH":18204,"BSTAR":8.0152e-5,"MEAN_MOTION_DOT":9.88e-6,"MEAN_MOTION_DDOT":0},{"OBJECT_NAME":"STARLINK-4555","OBJECT_ID":"2022-101AX","EPOCH":"2025-11-29T18:12:43.750080","MEAN_MOTION":15.08836106,"ECCENTRICITY":0.0001566,"INCLINATION":53.2161,"RA_OF_ASC_NODE":142.4019,"ARG_OF_PERICENTER":90.0735,"MEAN_ANOMALY":270.0437,"EPHEMERIS_TYPE":0,"CLASSIFICATION_TYPE":"U","NORAD_CAT_ID":53572,"ELEMENT_SET_NO":999,"REV_AT_EPOCH":18136,"BSTAR":3.4142e-5,"MEAN_MOTION_DOT":2.55e-6,"MEAN_MOTION_DDOT":0},{"OBJECT_NAME":"STARLINK-4559","OBJECT_ID":"2022-101AZ","EPOCH":"2025-11-29T18:18:02.127168","MEAN_MOTION":15.08836908,"ECCENTRICITY":0.0001401,"INCLINATION":53.2168,"RA_OF_ASC_NODE":142.4229,"ARG_OF_PERICENTER":91.0596,"MEAN_ANOMALY":269.0556,"EPHEMERIS_TYPE":0,"CLASSIFICATION_TYPE":"U","NORAD_CAT_ID":53574,"ELEMENT_SET_NO":999,"REV_AT_EPOCH":18136,"BSTAR":2.8996e-5,"MEAN_MOTION_DOT":1.74e-6,"MEAN_MOTION_DDOT":0},{"OBJECT_NAME":"STARLINK-4551","OBJECT_ID":"2022-101BA","EPOCH":"2025-11-29T15:17:53.747232","MEAN_MOTION":15.08829222,"ECCENTRICITY":0.000135,"INCLINATION":53.2164,"RA_OF_ASC_NODE":143.0608,"ARG_OF_PERICENTER":78.7333,"MEAN_ANOMALY":281.381,"EPHEMERIS_TYPE":0,"CLASSIFICATION_TYPE":"U","NORAD_CAT_ID":53575,"ELEMENT_SET_NO":999,"REV_AT_EPOCH":18203,"BSTAR":-7.3675e-5,"MEAN_MOTION_DOT":-1.46e-5,"MEAN_MOTION_DDOT":0}]
